NORAD_CAT_ID,OBJECT_NAME,OBJECT_TYPE,EPOCH,MEAN_MOTION,ECCENTRICITY,INCLINATION,RA_OF_ASC_NODE,ARG_OF_PERICENTER,MEAN_ANOMALY,BSTAR,MEAN_MOTION_DOT,MEAN_MOTION_DDOT,TLE_LINE0,TLE_LINE1,TLE_LINE2,SEMIMAJOR_AXIS,PERIOD,APOGEE,PERIGEE,DECAYED
53417.0,STARLINK-4484,PAYLOAD,2024-03-01 15:22:33,15.088646,0.0001066,53.2154,187.3535,78.9242,281.187,0.00065967,0.00010233,0.0,0 STARLINK-4484,1 53417U 22097AF  24061.64066618  .00010233  00000-0  65967-3 0  9995,2 53417  53.2154 187.3535 0001066  78.9242 281.1870 15.08864600 86749,6917.805,95.436,540.408,538.933,0.0
53417.0,STARLINK-4484,PAYLOAD,2024-03-02 12:02:34,15.08851081,0.0001128,53.2163,183.4884,90.8346,269.2775,0.00019738,2.856e-05,0.0,0 STARLINK-4484,1 53417U 22097AF  24062.50178494  .00002856  00000-0  19738-3 0  9994,2 53417  53.2163 183.4884 0001128  90.8346 269.2775 15.08851081 86874,6917.847,95.437,540.492,538.931,0.0
53417.0,STARLINK-4484,PAYLOAD,2024-03-02 13:37:57,15.08847726,0.0001373,53.2158,183.1901,115.1497,244.9638,5.0329e-05,5.13e-06,0.0,0 STARLINK-4484,1 53417U 22097AF  24062.56802411  .00000513  00000-0  50329-4 0  9993,2 53417  53.2158 183.1901 0001373 115.1497 244.9638 15.08847726 87347,6917.857,95.437,540.672,538.772,0.0
53417.0,STARLINK-4484,PAYLOAD,2024-03-03 00:45:39,15.08843536,0.0001101,53.2153,181.1076,87.6836,272.4282,2.6949e-05,1.41e-06,0.0,0 STARLINK-4484,1 53417U 22097AF  24063.03170602  .00000141  00000-0  26949-4 0  9994,2 53417  53.2153 181.1076 0001101  87.6836 272.4282 15.08843536 86954,6917.87,95.437,540.496,538.973,0.0
53417.0,STARLINK-4484,PAYLOAD,2024-03-03 11:53:21,15.08834447,0.0001338,53.2164,179.0282,102.5965,257.5176,-9.4703e-05,-1.795e-05,0.0,0 STARLINK-4484,1 53417U 22097AF  24063.49538996 -.00001795  00000-0 -94703-4 0  9999,2 53417  53.2164 179.0282 0001338 102.5965 257.5176 15.08834447 87029,6917.897,95.438,540.688,538.837,0.0
53417.0,STARLINK-4484,PAYLOAD,2024-03-03 15:04:07,15.08840209,0.000173,53.2172,178.4329,106.8632,253.255,-6.0053e-05,-1.244e-05,0.0,0 STARLINK-4484,1 53417U 22097AF  24063.62786538 -.00001244  00000-0 -60053-4 0  9991,2 53417  53.2172 178.4329 0001730 106.8632 253.2550 15.08840209 87502,6917.88,95.438,540.942,538.548,0.0
53417.0,STARLINK-4484,PAYLOAD,2024-03-04 13:19:31,15.08850943,0.0001535,53.2168,174.2682,93.7977,266.3191,0.00041469,6.32e-05,0.0,0 STARLINK-4484,1 53417U 22097AF  24064.55522549  .00006320  00000-0  41469-3 0  9991,2 53417  53.2168 174.2682 0001535  93.7977 266.3191 15.08850943 87649,6917.847,95.437,540.774,538.65,0.0
53417.0,STARLINK-4484,PAYLOAD,2024-03-04 14:54:54,15.08852898,0.0001447,53.2158,173.9705,87.2622,272.8536,0.00045892,7.026e-05,0.0,0 STARLINK-4484,1 53417U 22097AF  24064.62146492  .00007026  00000-0  45892-3 0  9996,2 53417  53.2158 173.9705 0001447  87.2622 272.8536 15.08852898 87654,6917.841,95.437,540.707,538.705,0.0
53417.0,STARLINK-4484,PAYLOAD,2024-03-05 00:27:12,15.08856614,0.0001415,53.2159,172.1861,86.056,274.0594,0.00031915,4.797e-05,0.0,0 STARLINK-4484,1 53417U 22097AF  24065.01890029  .00004797  00000-0  31915-3 0  9995,2 53417  53.2159 172.1861 0001415  86.0560 274.0594 15.08856614 87256,6917.83,95.437,540.673,538.716,0.0
53417.0,STARLINK-4484,PAYLOAD,2024-03-05 13:10:19,15.08818494,0.0001637,53.2156,169.8076,91.9732,268.1447,-0.00049515,-8.155e-05,0.0,0 STARLINK-4484,1 53417U 22097AF  24065.54883458 -.00008155  00000-0 -49515-3 0  9990,2 53417  53.2156 169.8076 0001637  91.9732 268.1447 15.08818494 87790,6917.946,95.439,540.944,538.679,0.0
53417.0,STARLINK-4484,PAYLOAD,2024-03-06 11:25:43,15.08841554,0.0001505,53.2151,165.6439,100.1354,259.9808,0.0011759,0.00018477,0.0,0 STARLINK-4484,1 53417U 22097AF  24066.47620335  .00018477  00000-0  11759-2 0  9990,2 53417  53.2151 165.6439 0001505 100.1354 259.9808 15.08841554 87476,6917.876,95.437,540.782,538.699,0.0
53417.0,STARLINK-4484,PAYLOAD,2024-03-06 13:01:07,15.08848103,0.0001488,53.2152,165.3467,99.2508,260.8653,0.0013723,0.00021624,0.0,0 STARLINK-4484,1 53417U 22097AF  24066.54244287  .00021624  00000-0  13723-2 0  9997,2 53417  53.2152 165.3467 0001488  99.2508 260.8653 15.08848103 87942,6917.856,95.437,540.75,538.691,0.0
53417.0,STARLINK-4484,PAYLOAD,2024-03-07 12:51:54,15.08836992,0.0001272,53.2165,160.8854,99.4746,260.639,0.00025812,3.822e-05,0.0,0 STARLINK-4484,1 53417U 22097AF  24067.53604487  .00003822  00000-0  25812-3 0  9992,2 53417  53.2165 160.8854 0001272  99.4746 260.6390 15.08836992 88099,6917.89,95.438,540.635,538.875,0.0
53417.0,STARLINK-4484,PAYLOAD,2024-03-08 12:42:40,15.08847099,0.0001188,53.2159,156.4242,100.9387,259.1739,0.00012719,1.737e-05,0.0,0 STARLINK-4484,1 53417U 22097AF  24068.52963808  .00001737  00000-0  12719-3 0  9992,2 53417  53.2159 156.4242 0001188 100.9387 259.1739 15.08847099 88246,6917.859,95.437,540.546,538.902,0.0
53417.0,STARLINK-4484,PAYLOAD,2024-03-09 12:33:28,15.08834465,0.0001062,53.2164,151.9668,93.0956,267.0157,7.875e-05,9.66e-06,0.0,0 STARLINK-4484,1 53417U 22097AF  24069.52324478  .00000966  00000-0  78750-4 0  9998,2 53417  53.2164 151.9668 0001062  93.0956 267.0157 15.08834465 87939,6917.897,95.438,540.497,539.028,0.0
53417.0,STARLINK-4484,PAYLOAD,2024-03-09 22:05:46,15.08846877,0.0001103,53.2169,150.1817,90.085,270.0268,0.00012838,1.756e-05,0.0,0 STARLINK-4484,1 53417U 22097AF  24069.92067657  .00001756  00000-0  12838-3 0  9997,2 53417  53.2169 150.1817 0001103  90.0850 270.0268 15.08846877 88452,6917.859,95.437,540.487,538.961,0.0
53417.0,STARLINK-4484,PAYLOAD,2024-03-10 12:24:15,15.08830155,0.0001461,53.2179,147.5088,112.7001,247.4145,-1.1088e-05,-4.64e-06,0.0,0 STARLINK-4484,1 53417U 22097AF  24070.51685136 -.00000464  00000-0 -11088-4 0  9996,2 53417  53.2179 147.5088 0001461 112.7001 247.4145 15.08830155 88083,6917.91,95.438,540.786,538.765,0.0
53417.0,STARLINK-4484,PAYLOAD,2024-03-10 13:59:38,15.0883312,0.0001356,53.2165,147.2098,101.338,258.7764,3.1044e-05,2.06e-06,0.0,0 STARLINK-4484,1 53417U 22097AF  24070.58308963  .00000206  00000-0  31044-4 0  9999,2 53417  53.2165 147.2098 0001356 101.3380 258.7764 15.08833120 88552,6917.901,95.438,540.704,538.828,0.0
53417.0,STARLINK-4484,PAYLOAD,2024-03-10 21:56:34,15.08839127,0.0001354,53.2164,145.7224,96.841,263.2736,7.0415e-05,8.33e-06,0.0,0 STARLINK-4484,1 53417U 22097AF  24070.91428520  .00000833  00000-0  70415-4 0  9999,2 53417  53.2164 145.7224 0001354  96.8410 263.2736 15.08839127 88604,6917.883,95.438,540.685,538.811,0.0
53417.0,STARLINK-4484,PAYLOAD,2024-03-11 04:18:06,15.08835098,0.0001404,53.2166,144.533,96.2769,263.8383,0.00014415,2.007e-05,0.0,0 STARLINK-4484,1 53417U 22097AF  24071.17924643  .00002007  00000-0  14415-3 0  9997,2 53417  53.2166 144.5330 0001404  96.2769 263.8383 15.08835098 88188,6917.895,95.438,540.732,538.789,0.0
53417.0,STARLINK-4484,PAYLOAD,2024-03-11 12:15:02,15.0884057,0.0001458,53.2161,143.0465,93.4178,266.6981,0.00018711,2.691e-05,0.0,0 STARLINK-4484,1 53417U 22097AF  24071.51044455  .00002691  00000-0  18711-3 0  9991,2 53417  53.2161 143.0465 0001458  93.4178 266.6981 15.08840570 88690,6917.879,95.438,540.752,538.735,0.0
53417.0,STARLINK-4484,PAYLOAD,2024-03-12 12:05:49,15.08843726,0.0001412,53.2159,138.5848,84.3626,275.7528,0.00018311,2.628e-05,0.0,0 STARLINK-4484,1 53417U 22097AF  24072.50404373  .00002628  00000-0  18311-3 0  9996,2 53417  53.2159 138.5848 0001412  84.3626 275.7528 15.08843726 88388,6917.869,95.437,540.711,538.757,0.0
53417.0,STARLINK-4484,PAYLOAD,2024-03-12 21:38:07,15.08848006,0.0001437,53.2156,136.8003,83.2966,276.819,0.00017782,2.544e-05,0.0,0 STARLINK-4484,1 53417U 22097AF  24072.90148077  .00002544  00000-0  17782-3 0  9994,2 53417  53.2156 136.8003 0001437  83.2966 276.8190 15.08848006 88902,6917.856,95.437,540.715,538.727,0.0
53417.0,STARLINK-4484,PAYLOAD,2024-03-13 03:59:40,15.08837376,0.0001469,53.2163,135.6114,85.3692,274.7468,1.2168e-05,-9.4e-07,0.0,0 STARLINK-4484,1 53417U 22097AF  24073.16644568 -.00000094  00000-0  12168-4 0  9992,2 53417  53.2163 135.6114 0001469  85.3692 274.7468 15.08837376 88480,6917.888,95.438,540.77,538.737,0.0
53417.0,STARLINK-4484,PAYLOAD,2024-03-13 10:21:13,15.08841234,0.0001436,53.215,134.4214,88.168,271.9476,8.4002e-05,1.049e-05,0.0,0 STARLINK-4484,1 53417U 22097AF  24073.43140256  .00001049  00000-0  84002-4 0  9993,2 53417  53.2150 134.4214 0001436  88.1680 271.9476 15.08841234 88987,6917.877,95.437,540.735,538.748,0.0
53417.0,STARLINK-4484,PAYLOAD,2024-03-14 07:01:13,15.088461,0.0001473,53.2153,130.5555,86.2412,273.8749,0.00011503,1.543e-05,0.0,0 STARLINK-4484,1 53417U 22097AF  24074.29251912  .00001543  00000-0  11503-3 0  9994,2 53417  53.2153 130.5555 0001473  86.2412 273.8749 15.08846100 89115,6917.862,95.437,540.746,538.708,0.0
53417.0,STARLINK-4484,PAYLOAD,2024-03-14 10:11:59,15.08845105,0.0001473,53.2155,129.961,87.0169,273.0992,0.00011478,1.539e-05,0.0,0 STARLINK-4484,1 53417U 22097AF  24074.42499938  .00001539  00000-0  11478-3 0  9997,2 53417  53.2155 129.9610 0001473  87.0169 273.0992 15.08845105 89137,6917.865,95.437,540.749,538.711,0.0
53417.0,STARLINK-4484,PAYLOAD,2024-03-15 03:41:14,15.08839175,0.0001439,53.2163,126.6889,92.882,267.2336,8.5091e-05,1.067e-05,0.0,0 STARLINK-4484,1 53417U 22097AF  24075.15364128  .00001067  00000-0  85091-4 0  9999,2 53417  53.2163 126.6889 0001439  92.8820 267.2336 15.08839175 88785,6917.883,95.438,540.743,538.752,0.0
53417.0,STARLINK-4484,PAYLOAD,2024-03-15 10:02:47,15.0883895,0.000151,53.2171,125.4998,93.992,266.1245,1.8839e-05,1.2e-07,0.0,0 STARLINK-4484,1 53417U 22097AF  24075.41860263  .00000012  00000-0  18839-4 0  9994,2 53417  53.2171 125.4998 0001510  93.9920 266.1245 15.08838950 89288,6917.884,95.438,540.793,538.704,0.0
53417.0,STARLINK-4484,PAYLOAD,2024-03-16 08:18:11,15.08835171,0.0001509,53.2166,121.335,97.0879,263.0285,2.4228e-05,9.8e-07,0.0,0 STARLINK-4484,1 53417U 22097AF  24076.34596550  .00000098  00000-0  24228-4 0  9995,2 53417  53.2166 121.3350 0001509  97.0879 263.0285 15.08835171 88961,6917.895,95.438,540.804,538.716,0.0
